<?xml version="1.0" encoding="UTF-8"?>
<ndm xmlns:xsi="http://www.w3.org/2001/XMLSchema-instance" xsi:noNamespaceSchemaLocation="https://sanaregistry.org/r/ndmxml_unqualified/ndmxml-2.0.0-master-2.0.xsd">
<omm id="CCSDS_OMM_VERS" version="2.0">
<header><CREATION_DATE/><ORIGINATOR/></header><body><segment><metadata><OBJECT_NAME>KUIPER-00071</OBJECT_NAME><OBJECT_ID>2025-151C</OBJECT_ID><CENTER_NAME>EARTH</CENTER_NAME><REF_FRAME>TEME</REF_FRAME><TIME_SYSTEM>UTC</TIME_SYSTEM><MEAN_ELEMENT_THEORY>SGP4</MEAN_ELEMENT_THEORY></metadata><data><meanElements><EPOCH>2025-08-11T14:00:01.000224</EPOCH><MEAN_MOTION>15.27493060</MEAN_MOTION><ECCENTRICITY>.0003906</ECCENTRICITY><INCLINATION>51.8811</INCLINATION><RA_OF_ASC_NODE>160.9562</RA_OF_ASC_NODE><ARG_OF_PERICENTER>222.4653</ARG_OF_PERICENTER><MEAN_ANOMALY>142.5929</MEAN_ANOMALY></meanElements><tleParameters><EPHEMERIS_TYPE>0</EPHEMERIS_TYPE><CLASSIFICATION_TYPE>U</CLASSIFICATION_TYPE><NORAD_CAT_ID>64818</NORAD_CAT_ID><ELEMENT_SET_NO>999</ELEMENT_SET_NO><REV_AT_EPOCH>357</REV_AT_EPOCH><BSTAR>-.20131E-1</BSTAR><MEAN_MOTION_DOT>-.513365E-2</MEAN_MOTION_DOT><MEAN_MOTION_DDOT>0</MEAN_MOTION_DDOT></tleParameters></data></segment></body></omm>
<omm id="CCSDS_OMM_VERS" version="2.0">
<header><CREATION_DATE/><ORIGINATOR/></header><body><segment><metadata><OBJECT_NAME>KUIPER-00072</OBJECT_NAME><OBJECT_ID>2025-151D</OBJECT_ID><CENTER_NAME>EARTH</CENTER_NAME><REF_FRAME>TEME</REF_FRAME><TIME_SYSTEM>UTC</TIME_SYSTEM><MEAN_ELEMENT_THEORY>SGP4</MEAN_ELEMENT_THEORY></metadata><data><meanElements><EPOCH>2025-08-11T05:43:26.773248</EPOCH><MEAN_MOTION>15.35689118</MEAN_MOTION><ECCENTRICITY>.0006052</ECCENTRICITY><INCLINATION>51.8832</INCLINATION><RA_OF_ASC_NODE>162.4310</RA_OF_ASC_NODE><ARG_OF_PERICENTER>247.1520</ARG_OF_PERICENTER><MEAN_ANOMALY>112.8828</MEAN_ANOMALY></meanElements><tleParameters><EPHEMERIS_TYPE>0</EPHEMERIS_TYPE><CLASSIFICATION_TYPE>U</CLASSIFICATION_TYPE><NORAD_CAT_ID>64819</NORAD_CAT_ID><ELEMENT_SET_NO>999</ELEMENT_SET_NO><REV_AT_EPOCH>398</REV_AT_EPOCH><BSTAR>.17991E-2</BSTAR><MEAN_MOTION_DOT>.63582E-3</MEAN_MOTION_DOT><MEAN_MOTION_DDOT>0</MEAN_MOTION_DDOT></tleParameters></data></segment></body></omm>
<omm id="CCSDS_OMM_VERS" version="2.0">
<header><CREATION_DATE/><ORIGINATOR/></header><body><segment><metadata><OBJECT_NAME>KUIPER-00073</OBJECT_NAME><OBJECT_ID>2025-151E</OBJECT_ID><CENTER_NAME>EARTH</CENTER_NAME><REF_FRAME>TEME</REF_FRAME><TIME_SYSTEM>UTC</TIME_SYSTEM><MEAN_ELEMENT_THEORY>SGP4</MEAN_ELEMENT_THEORY></metadata><data><meanElements><EPOCH>2025-08-11T14:00:01.000224</EPOCH><MEAN_MOTION>15.29265015</MEAN_MOTION><ECCENTRICITY>.0006489</ECCENTRICITY><INCLINATION>51.8811</INCLINATION><RA_OF_ASC_NODE>160.9883</RA_OF_ASC_NODE><ARG_OF_PERICENTER>246.8358</ARG_OF_PERICENTER><MEAN_ANOMALY>126.9235</MEAN_ANOMALY></meanElements><tleParameters><EPHEMERIS_TYPE>0</EPHEMERIS_TYPE><CLASSIFICATION_TYPE>U</CLASSIFICATION_TYPE><NORAD_CAT_ID>64820</NORAD_CAT_ID><ELEMENT_SET_NO>999</ELEMENT_SET_NO><REV_AT_EPOCH>411</REV_AT_EPOCH><BSTAR>-.30514E-1</BSTAR><MEAN_MOTION_DOT>-.814196E-2</MEAN_MOTION_DOT><MEAN_MOTION_DDOT>0</MEAN_MOTION_DDOT></tleParameters></data></segment></body></omm>
<omm id="CCSDS_OMM_VERS" version="2.0">
<header><CREATION_DATE/><ORIGINATOR/></header><body><segment><metadata><OBJECT_NAME>KUIPER-00074</OBJECT_NAME><OBJECT_ID>2025-151F</OBJECT_ID><CENTER_NAME>EARTH</CENTER_NAME><REF_FRAME>TEME</REF_FRAME><TIME_SYSTEM>UTC</TIME_SYSTEM><MEAN_ELEMENT_THEORY>SGP4</MEAN_ELEMENT_THEORY></metadata><data><meanElements><EPOCH>2025-08-11T13:27:57.802752</EPOCH><MEAN_MOTION>15.35718740</MEAN_MOTION><ECCENTRICITY>.0004826</ECCENTRICITY><INCLINATION>51.8800</INCLINATION><RA_OF_ASC_NODE>160.8403</RA_OF_ASC_NODE><ARG_OF_PERICENTER>242.2302</ARG_OF_PERICENTER><MEAN_ANOMALY>117.8195</MEAN_ANOMALY></meanElements><tleParameters><EPHEMERIS_TYPE>0</EPHEMERIS_TYPE><CLASSIFICATION_TYPE>U</CLASSIFICATION_TYPE><NORAD_CAT_ID>64821</NORAD_CAT_ID><ELEMENT_SET_NO>999</ELEMENT_SET_NO><REV_AT_EPOCH>403</REV_AT_EPOCH><BSTAR>.12425E-2</BSTAR><MEAN_MOTION_DOT>.4371E-3</MEAN_MOTION_DOT><MEAN_MOTION_DDOT>0</MEAN_MOTION_DDOT></tleParameters></data></segment></body></omm>
<omm id="CCSDS_OMM_VERS" version="2.0">
<header><CREATION_DATE/><ORIGINATOR/></header><body><segment><metadata><OBJECT_NAME>KUIPER-00075</OBJECT_NAME><OBJECT_ID>2025-151G</OBJECT_ID><CENTER_NAME>EARTH</CENTER_NAME><REF_FRAME>TEME</REF_FRAME><TIME_SYSTEM>UTC</TIME_SYSTEM><MEAN_ELEMENT_THEORY>SGP4</MEAN_ELEMENT_THEORY></metadata><data><meanElements><EPOCH>2025-08-11T13:25:09.119712</EPOCH><MEAN_MOTION>15.36574066</MEAN_MOTION><ECCENTRICITY>.0004471</ECCENTRICITY><INCLINATION>51.8806</INCLINATION><RA_OF_ASC_NODE>160.8367</RA_OF_ASC_NODE><ARG_OF_PERICENTER>232.6914</ARG_OF_PERICENTER><MEAN_ANOMALY>127.3666</MEAN_ANOMALY></meanElements><tleParameters><EPHEMERIS_TYPE>0</EPHEMERIS_TYPE><CLASSIFICATION_TYPE>U</CLASSIFICATION_TYPE><NORAD_CAT_ID>64822</NORAD_CAT_ID><ELEMENT_SET_NO>999</ELEMENT_SET_NO><REV_AT_EPOCH>403</REV_AT_EPOCH><BSTAR>.14343E-2</BSTAR><MEAN_MOTION_DOT>.51986E-3</MEAN_MOTION_DOT><MEAN_MOTION_DDOT>0</MEAN_MOTION_DDOT></tleParameters></data></segment></body></omm>
<omm id="CCSDS_OMM_VERS" version="2.0">
<header><CREATION_DATE/><ORIGINATOR/></header><body><segment><metadata><OBJECT_NAME>KUIPER-00076</OBJECT_NAME><OBJECT_ID>2025-151H</OBJECT_ID><CENTER_NAME>EARTH</CENTER_NAME><REF_FRAME>TEME</REF_FRAME><TIME_SYSTEM>UTC</TIME_SYSTEM><MEAN_ELEMENT_THEORY>SGP4</MEAN_ELEMENT_THEORY></metadata><data><meanElements><EPOCH>2025-08-11T13:30:50.963904</EPOCH><MEAN_MOTION>15.35573311</MEAN_MOTION><ECCENTRICITY>.0004643</ECCENTRICITY><INCLINATION>51.8793</INCLINATION><RA_OF_ASC_NODE>160.8541</RA_OF_ASC_NODE><ARG_OF_PERICENTER>237.5249</ARG_OF_PERICENTER><MEAN_ANOMALY>122.5288</MEAN_ANOMALY></meanElements><tleParameters><EPHEMERIS_TYPE>0</EPHEMERIS_TYPE><CLASSIFICATION_TYPE>U</CLASSIFICATION_TYPE><NORAD_CAT_ID>64823</NORAD_CAT_ID><ELEMENT_SET_NO>999</ELEMENT_SET_NO><REV_AT_EPOCH>403</REV_AT_EPOCH><BSTAR>.10985E-2</BSTAR><MEAN_MOTION_DOT>.38391E-3</MEAN_MOTION_DOT><MEAN_MOTION_DDOT>0</MEAN_MOTION_DDOT></tleParameters></data></segment></body></omm>
<omm id="CCSDS_OMM_VERS" version="2.0">
<header><CREATION_DATE/><ORIGINATOR/></header><body><segment><metadata><OBJECT_NAME>KUIPER-00077</OBJECT_NAME><OBJECT_ID>2025-151J</OBJECT_ID><CENTER_NAME>EARTH</CENTER_NAME><REF_FRAME>TEME</REF_FRAME><TIME_SYSTEM>UTC</TIME_SYSTEM><MEAN_ELEMENT_THEORY>SGP4</MEAN_ELEMENT_THEORY></metadata><data><meanElements><EPOCH>2025-08-11T05:45:44.182080</EPOCH><MEAN_MOTION>15.35547393</MEAN_MOTION><ECCENTRICITY>.0005811</ECCENTRICITY><INCLINATION>51.8795</INCLINATION><RA_OF_ASC_NODE>162.4477</RA_OF_ASC_NODE><ARG_OF_PERICENTER>247.3079</ARG_OF_PERICENTER><MEAN_ANOMALY>112.7293</MEAN_ANOMALY></meanElements><tleParameters><EPHEMERIS_TYPE>0</EPHEMERIS_TYPE><CLASSIFICATION_TYPE>U</CLASSIFICATION_TYPE><NORAD_CAT_ID>64824</NORAD_CAT_ID><ELEMENT_SET_NO>999</ELEMENT_SET_NO><REV_AT_EPOCH>397</REV_AT_EPOCH><BSTAR>.11633E-2</BSTAR><MEAN_MOTION_DOT>.40663E-3</MEAN_MOTION_DOT><MEAN_MOTION_DDOT>0</MEAN_MOTION_DDOT></tleParameters></data></segment></body></omm>
<omm id="CCSDS_OMM_VERS" version="2.0">
<header><CREATION_DATE/><ORIGINATOR/></header><body><segment><metadata><OBJECT_NAME>KUIPER-00078</OBJECT_NAME><OBJECT_ID>2025-151K</OBJECT_ID><CENTER_NAME>EARTH</CENTER_NAME><REF_FRAME>TEME</REF_FRAME><TIME_SYSTEM>UTC</TIME_SYSTEM><MEAN_ELEMENT_THEORY>SGP4</MEAN_ELEMENT_THEORY></metadata><data><meanElements><EPOCH>2025-08-11T10:26:06.255168</EPOCH><MEAN_MOTION>15.35565827</MEAN_MOTION><ECCENTRICITY>.0005412</ECCENTRICITY><INCLINATION>51.8784</INCLINATION><RA_OF_ASC_NODE>161.4982</RA_OF_ASC_NODE><ARG_OF_PERICENTER>258.4996</ARG_OF_PERICENTER><MEAN_ANOMALY>101.5383</MEAN_ANOMALY></meanElements><tleParameters><EPHEMERIS_TYPE>0</EPHEMERIS_TYPE><CLASSIFICATION_TYPE>U</CLASSIFICATION_TYPE><NORAD_CAT_ID>64825</NORAD_CAT_ID><ELEMENT_SET_NO>999</ELEMENT_SET_NO><REV_AT_EPOCH>401</REV_AT_EPOCH><BSTAR>.9838E-3</BSTAR><MEAN_MOTION_DOT>.34319E-3</MEAN_MOTION_DOT><MEAN_MOTION_DDOT>0</MEAN_MOTION_DDOT></tleParameters></data></segment></body></omm>

</ndm>
