KUIPER-00071            
1 64818U 25151C   25223.58334491 -.00513365  00000+0 -20131-1 0  9994
2 64818  51.8811 160.9562 0003906 222.4653 142.5929 15.27493060  3578
KUIPER-00072            
1 64819U 25151D   25223.23850432  .00063582  00000+0  17991-2 0  9995
2 64819  51.8832 162.4310 0006052 247.1520 112.8828 15.35689118  3985
KUIPER-00073            
1 64820U 25151E   25223.58334491 -.00814196  00000+0 -30514-1 0  9999
2 64820  51.8811 160.9883 0006489 246.8358 126.9235 15.29265015  4114
KUIPER-00074            
1 64821U 25151F   25223.56108568  .00043710  00000+0  12425-2 0  9998
2 64821  51.8800 160.8403 0004826 242.2302 117.8195 15.35718740  4032
KUIPER-00075            
1 64822U 25151G   25223.55913333  .00051986  00000+0  14343-2 0  9997
2 64822  51.8806 160.8367 0004471 232.6914 127.3666 15.36574066  4037
KUIPER-00076            
1 64823U 25151H   25223.56308986  .00038391  00000+0  10985-2 0  9994
2 64823  51.8793 160.8541 0004643 237.5249 122.5288 15.35573311  4031
KUIPER-00077            
1 64824U 25151J   25223.24009470  .00040663  00000+0  11633-2 0  9992
2 64824  51.8795 162.4477 0005811 247.3079 112.7293 15.35547393  3978
KUIPER-00078            
1 64825U 25151K   25223.43479462  .00034319  00000+0  98380-3 0  9992
2 64825  51.8784 161.4982 0005412 258.4996 101.5383 15.35565827  4019
